OBJECT_NAME,OBJECT_ID,EPOCH,MEAN_MOTION,ECCENTRICITY,INCLINATION,RA_OF_ASC_NODE,ARG_OF_PERICENTER,MEAN_ANOMALY,EPHEMERIS_TYPE,CLASSIFICATION_TYPE,NORAD_CAT_ID,ELEMENT_SET_NO,REV_AT_EPOCH,BSTAR,MEAN_MOTION_DOT,MEAN_MOTION_DDOT
STARLINK-2407,2021-018AM,2026-06-26T02:03:58.327200,15.31695343,.0001296,53.1576,110.9891,71.1202,288.9940,0,U,47822,999,29316,-.32233E-4,-.1365E-4,0
STARLINK-2408,2021-018AN,2026-06-26T00:04:11.341056,15.31698832,.0001502,53.1601,114.1427,99.0918,261.0253,0,U,47823,999,29309,.5004E-4,.1188E-4,0
STARLINK-2409,2021-018AP,2026-06-26T02:35:29.747616,15.30197732,.0001178,53.1594,114.1978,82.0188,278.0946,0,U,47824,999,29309,.39778E-4,.819E-5,0
STARLINK-2410,2021-018AQ,2026-06-25T23:52:06.655008,15.31703719,.0001462,53.1598,98.9610,108.3822,251.7338,0,U,47825,999,29332,.55791E-4,.1367E-4,0
STARLINK-2411,2021-018AR,2026-06-26T02:40:23.466144,15.31703572,.0001174,53.1599,100.9652,90.7408,269.3728,0,U,47826,999,29330,-.44988E-4,-.1761E-4,0
STARLINK-2413,2021-018AS,2026-06-26T01:45:40.927104,15.31704047,.0001248,53.1591,98.3490,94.4403,265.6741,0,U,47827,999,29338,.14186E-4,.75E-6,0
STARLINK-2415,2021-018AT,2026-06-25T23:02:45.635424,15.31703168,.000112,53.1575,111.5808,87.1908,272.9222,0,U,47828,999,29314,.22958E-4,.347E-5,0
STARLINK-2419,2021-018AV,2026-06-26T03:17:52.192032,15.31700392,.0001427,53.1597,111.0794,93.8396,266.2768,0,U,47830,999,29315,.81206E-4,.2155E-4,0
STARLINK-2420,2021-018AW,2026-06-26T02:25:58.323936,15.31702930,.0001653,53.1591,98.3198,89.6920,270.4271,0,U,47831,999,29337,-.91358E-4,-.3199E-4,0
STARLINK-2422,2021-018AX,2026-06-26T02:27:02.648736,15.31693231,.0001397,53.1589,101.3337,85.1159,275.0002,0,U,47832,999,29329,.17E-5,-.312E-5,0
STARLINK-2423,2021-018AY,2026-06-26T01:50:16.246752,15.31696226,.0001186,53.1608,112.0521,88.3870,271.7267,0,U,47833,999,29318,.87295E-5,-.94E-6,0
STARLINK-2424,2021-018AZ,2026-06-26T00:12:40.296672,15.31704312,.0001302,53.1588,101.1096,101.0345,259.0803,0,U,47834,999,29334,.43334E-4,.98E-5,0
STARLINK-2426,2021-018BB,2026-06-26T00:19:22.223424,15.31702759,.0001184,53.1581,101.0389,89.4870,270.6267,0,U,47836,999,29329,-.3418E-4,-.1426E-4,0
STARLINK-2427,2021-018BC,2026-06-25T23:50:53.843136,15.31704866,.0001233,53.1594,95.1516,101.2484,258.8656,0,U,47837,999,29336,.73282E-4,.191E-4,0
STARLINK-2429,2021-018BD,2026-06-25T23:39:15.399360,15.31696176,.0001357,53.1591,101.9130,97.1834,262.9322,0,U,47838,999,29327,.19277E-4,.233E-5,0
STARLINK-2431,2021-018BE,2026-06-26T00:09:07.698240,15.31707129,.0001189,53.1583,73.0336,89.4328,270.6810,0,U,47839,999,29369,-.5306E-4,-.2012E-4,0
STARLINK-2432,2021-018BF,2026-06-25T23:57:09.847296,15.31699320,.0001259,53.1608,95.3248,93.1993,266.9152,0,U,47840,999,29335,.4252E-4,.954E-5,0
STARLINK-2433,2021-018BG,2026-06-25T23:30:16.829280,15.31708145,.0001433,53.1599,95.2577,115.4401,244.6749,0,U,47841,999,29335,.13957E-4,.68E-6,0
STARLINK-2435,2021-018BJ,2026-06-26T02:37:31.932768,15.31697368,.0001465,53.1603,110.8847,99.0032,261.1135,0,U,47843,999,29317,-.33521E-5,-.469E-5,0
STARLINK-2446,2021-018BK,2026-06-25T23:50:26.926944,15.32863480,.0000894,53.1595,101.9966,115.2197,244.8898,0,U,47844,999,29327,.12181E-2,.39039E-3,0
STARLINK-2453,2021-018BL,2026-06-26T02:31:27.628896,15.31708052,.000116,53.1596,114.2343,87.8502,272.2632,0,U,47845,999,29310,.75133E-5,-.132E-5,0
SHIYAN-9 (SY-9),2021-019A,2026-06-25T16:42:48.055392,1.00270774,.0013795,16.5078,302.3350,26.7301,342.3488,0,U,47851,999,2422,0,-.23E-5,0
YAOGAN-31 04A,2021-020A,2026-06-26T05:27:00.681408,13.45447481,.0175765,63.4050,234.7633,0.4557,359.6598,0,U,47854,999,25968,-.19218E-3,-.215E-5,0
YAOGAN-31 04B,2021-020C,2026-06-26T05:27:17.175168,13.45447395,.0175489,63.4046,235.5526,0.5410,359.5775,0,U,47856,999,25962,-.17401E-3,-.203E-5,0
YAOGAN-31 04C,2021-020D,2026-06-26T05:27:21.544416,13.45448112,.0175568,63.4057,234.8453,0.3860,359.7270,0,U,47857,999,25967,-.10403E-3,-.158E-5,0
STARLINK-2280,2021-021B,2026-06-26T02:17:58.559424,15.31707254,.0001103,53.1589,113.9701,86.4957,273.6171,0,U,47861,999,29300,.77113E-4,.2029E-4,0
STARLINK-2291,2021-021C,2026-06-26T04:00:01.998720,15.65337792,.0001325,53.1566,101.1460,103.2954,92.6070,0,U,47862,999,596,.27044E-2,.283365E-2,0
STARLINK-2326,2021-021L,2026-06-26T03:53:27.924000,15.31704881,.0001139,53.1573,136.3258,84.4084,275.7048,0,U,47870,999,29258,.52657E-4,.1269E-4,0
STARLINK-2329,2021-021P,2026-06-25T13:05:27.362112,15.31708318,.0001468,53.1593,113.6384,95.6987,264.4181,0,U,47873,999,29294,.47743E-4,.1117E-4,0
STARLINK-2330,2021-021Q,2026-06-26T00:19:34.826592,15.38525239,.0004289,53.1431,70.7750,93.3672,266.7823,0,U,47874,999,29358,.11239E-2,.43233E-3,0
