STARLINK-2407           
1 47822U 21018AM  26177.08609175 -.00001365  00000+0 -32233-4 0  9997
2 47822  53.1576 110.9891 0001296  71.1202 288.9940 15.31695343293163
STARLINK-2408           
1 47823U 21018AN  26177.00290904  .00001188  00000+0  50040-4 0  9993
2 47823  53.1601 114.1427 0001502  99.0918 261.0253 15.31698832293094
STARLINK-2409           
1 47824U 21018AP  26177.10798319  .00000819  00000+0  39778-4 0  9993
2 47824  53.1594 114.1978 0001178  82.0188 278.0946 15.30197732293096
STARLINK-2410           
1 47825U 21018AQ  26176.99452147  .00001367  00000+0  55791-4 0  9998
2 47825  53.1598  98.9610 0001462 108.3822 251.7338 15.31703719293324
STARLINK-2411           
1 47826U 21018AR  26177.11138271 -.00001761  00000+0 -44988-4 0  9999
2 47826  53.1599 100.9652 0001174  90.7408 269.3728 15.31703572293303
STARLINK-2413           
1 47827U 21018AS  26177.07339036  .00000075  00000+0  14186-4 0  9999
2 47827  53.1591  98.3490 0001248  94.4403 265.6741 15.31704047293384
STARLINK-2415           
1 47828U 21018AT  26176.96025041  .00000347  00000+0  22958-4 0  9993
2 47828  53.1575 111.5808 0001120  87.1908 272.9222 15.31703168293148
STARLINK-2419           
1 47830U 21018AV  26177.13740963  .00002155  00000+0  81206-4 0  9993
2 47830  53.1597 111.0794 0001427  93.8396 266.2768 15.31700392293157
STARLINK-2420           
1 47831U 21018AW  26177.10136949 -.00003199  00000+0 -91358-4 0  9994
2 47831  53.1591  98.3198 0001653  89.6920 270.4271 15.31702930293374
STARLINK-2422           
1 47832U 21018AX  26177.10211399 -.00000312  00000+0  17000-5 0  9994
2 47832  53.1589 101.3337 0001397  85.1159 275.0002 15.31693231293299
STARLINK-2423           
1 47833U 21018AY  26177.07657693 -.00000094  00000+0  87295-5 0  9992
2 47833  53.1608 112.0521 0001186  88.3870 271.7267 15.31696226293188
STARLINK-2424           
1 47834U 21018AZ  26177.00879973  .00000980  00000+0  43334-4 0  9991
2 47834  53.1588 101.1096 0001302 101.0345 259.0803 15.31704312293341
STARLINK-2426           
1 47836U 21018BB  26177.01345166 -.00001426  00000+0 -34180-4 0  9993
2 47836  53.1581 101.0389 0001184  89.4870 270.6267 15.31702759293290
STARLINK-2427           
1 47837U 21018BC  26176.99367874  .00001910  00000+0  73282-4 0  9992
2 47837  53.1594  95.1516 0001233 101.2484 258.8656 15.31704866293368
STARLINK-2429           
1 47838U 21018BD  26176.98559490  .00000233  00000+0  19277-4 0  9990
2 47838  53.1591 101.9130 0001357  97.1834 262.9322 15.31696176293273
STARLINK-2431           
1 47839U 21018BE  26177.00633910 -.00002012  00000+0 -53060-4 0  9992
2 47839  53.1583  73.0336 0001189  89.4328 270.6810 15.31707129293692
STARLINK-2432           
1 47840U 21018BF  26176.99803064  .00000954  00000+0  42520-4 0  9990
2 47840  53.1608  95.3248 0001259  93.1993 266.9152 15.31699320293352
STARLINK-2433           
1 47841U 21018BG  26176.97936145  .00000068  00000+0  13957-4 0  9994
2 47841  53.1599  95.2577 0001433 115.4401 244.6749 15.31708145293353
STARLINK-2435           
1 47843U 21018BJ  26177.10939737 -.00000469  00000+0 -33521-5 0  9999
2 47843  53.1603 110.8847 0001465  99.0032 261.1135 15.31697368293174
STARLINK-2446           
1 47844U 21018BK  26176.99336721  .00039039  00000+0  12181-2 0  9999
2 47844  53.1595 101.9966 0000894 115.2197 244.8898 15.32863480293272
STARLINK-2453           
1 47845U 21018BL  26177.10518089 -.00000132  00000+0  75133-5 0  9995
2 47845  53.1596 114.2343 0001160  87.8502 272.2632 15.31708052293106
SHIYAN-9 (SY-9)         
1 47851U 21019A   26176.69638953 -.00000230  00000+0  00000+0 0  9993
2 47851  16.5078 302.3350 0013795  26.7301 342.3488  1.00270774 24224
YAOGAN-31 04A           
1 47854U 21020A   26177.22709122 -.00000215  00000+0 -19218-3 0  9994
2 47854  63.4050 234.7633 0175765   0.4557 359.6598 13.45447481259684
YAOGAN-31 04B           
1 47856U 21020C   26177.22728212 -.00000203  00000+0 -17401-3 0  9996
2 47856  63.4046 235.5526 0175489   0.5410 359.5775 13.45447395259627
YAOGAN-31 04C           
1 47857U 21020D   26177.22733269 -.00000158  00000+0 -10403-3 0  9999
2 47857  63.4057 234.8453 0175568   0.3860 359.7270 13.45448112259671
STARLINK-2280           
1 47861U 21021B   26177.09581666  .00002029  00000+0  77113-4 0  9991
2 47861  53.1589 113.9701 0001103  86.4957 273.6171 15.31707254293001
STARLINK-2291           
1 47862U 21021C   26177.16668980  .00283365  00000+0  27044-2 0  9995
2 47862  53.1566 101.1460 0001325 103.2954  92.6070 15.65337792  5965
STARLINK-2326           
1 47870U 21021L   26177.16212875  .00001269  00000+0  52657-4 0  9993
2 47870  53.1573 136.3258 0001139  84.4084 275.7048 15.31704881292589
STARLINK-2329           
1 47873U 21021P   26176.54545558  .00001117  00000+0  47743-4 0  9996
2 47873  53.1593 113.6384 0001468  95.6987 264.4181 15.31708318292945
STARLINK-2330           
1 47874U 21021Q   26177.01359753  .00043233  00000+0  11239-2 0  9994
2 47874  53.1431  70.7750 0004289  93.3672 266.7823 15.38525239293582
